[Satellite]
VERSION=1.1
NAME=ZIYUAN 3 (ZY 3)
NICKNAME=ZIYUAN 3 (ZY 3)
TLE1=1 38046U 12001A   17186.27263941  .00000582  00000-0  29228-4 0  9994
TLE2=2 38046  97.5350 253.3380 0002620  31.0660  54.0453 15.21251700304701
